start=new Date('2022-06-18T00:00:00.000Z').valueOf();
sats=[{"TIME_SYSTEM":"UTC","ARG_OF_PERICENTER":"60.4631","TLE_LINE2":"2 45730  53.0570 236.3601 0001520  60.4631 299.6509 15.06388315110732","PERIOD":"95.593","ECCENTRICITY":"0.00015200","RA_OF_ASC_NODE":"236.3601","ELEMENT_SET_NO":"999","EPOCH":"2022-06-15T11:17:26.189664","COUNTRY_CODE":"US","LAUNCH_DATE":"2020-06-13","INCLINATION":"53.0570","FILE":"3496794","OBJECT_ID":"2020-038A","CENTER_NAME":"EARTH","SEMIMAJOR_AXIS":"6925.384","REF_FRAME":"TEME","MEAN_ANOMALY":"299.6509","REV_AT_EPOCH":"11073","DECAY_DATE":null,"EPHEMERIS_TYPE":"0","PERIAPSIS":"546.197","MEAN_MOTION_DOT":"-0.00001577","MEAN_MOTION":"15.06388315","MEAN_MOTION_DDOT":"0.0000000000000","MEAN_ELEMENT_THEORY":"SGP4","CLASSIFICATION_TYPE":"U","OBJECT_TYPE":"PAYLOAD","OBJECT_NAME":"STARLINK-1461","APOAPSIS":"548.302","GP_ID":"206205505","SITE":"AFETR","RCS_SIZE":"LARGE","BSTAR":"-0.00008700800000","NORAD_CAT_ID":"45730","TLE_LINE1":"1 45730U 20038A   22166.47044201 -.00001577  00000-0 -87008-4 0  9990"},{"NORAD_CAT_ID":"45731","TLE_LINE1":"1 45731U 20038B   22166.88327070 -.00001772  00000-0 -10015-3 0  9994","BSTAR":"-0.00010015000000","RCS_SIZE":"LARGE","GP_ID":"206285705","SITE":"AFETR","APOAPSIS":"548.340","OBJECT_NAME":"STARLINK-1465","CLASSIFICATION_TYPE":"U","OBJECT_TYPE":"PAYLOAD","MEAN_MOTION_DDOT":"0.0000000000000","MEAN_ELEMENT_THEORY":"SGP4","EPHEMERIS_TYPE":"0","DECAY_DATE":null,"MEAN_MOTION":"15.06386303","PERIAPSIS":"546.171","MEAN_MOTION_DOT":"-0.00001772","MEAN_ANOMALY":"292.2205","REV_AT_EPOCH":"11078","REF_FRAME":"TEME","SEMIMAJOR_AXIS":"6925.391","CENTER_NAME":"EARTH","OBJECT_ID":"2020-038B","INCLINATION":"53.0544","FILE":"3497002","LAUNCH_DATE":"2020-06-13","ELEMENT_SET_NO":"999","EPOCH":"2022-06-15T21:11:54.588480","COUNTRY_CODE":"US","RA_OF_ASC_NODE":"234.4956","TIME_SYSTEM":"UTC","PERIOD":"95.593","TLE_LINE2":"2 45731  53.0544 234.4956 0001566  67.8951 292.2205 15.06386303110784","ECCENTRICITY":"0.00015660","ARG_OF_PERICENTER":"67.8951"},{"CENTER_NAME":"EARTH","OBJECT_ID":"2020-038C","PERIAPSIS":"546.090","MEAN_MOTION":"15.06386601","MEAN_MOTION_DOT":"-0.00001468","DECAY_DATE":null,"EPHEMERIS_TYPE":"0","MEAN_ANOMALY":"300.6036","REV_AT_EPOCH":"11184","REF_FRAME":"TEME","SEMIMAJOR_AXIS":"6925.390","EPOCH":"2022-06-15T11:22:44.805216","COUNTRY_CODE":"US","ELEMENT_SET_NO":"999","RA_OF_ASC_NODE":"236.3306","TLE_LINE2":"2 45732  53.0554 236.3306 0001682  59.5119 300.6036 15.06386601111844","PERIOD":"95.593","ECCENTRICITY":"0.00016820","ARG_OF_PERICENTER":"59.5119","TIME_SYSTEM":"UTC","FILE":"3496557","INCLINATION":"53.0554","LAUNCH_DATE":"2020-06-13","TLE_LINE1":"1 45732U 20038C   22166.47412969 -.00001468  00000-0 -79691-4 0  9990","NORAD_CAT_ID":"45732","BSTAR":"-0.00007969100000","RCS_SIZE":"LARGE","CLASSIFICATION_TYPE":"U","OBJECT_TYPE":"PAYLOAD","MEAN_ELEMENT_THEORY":"SGP4","MEAN_MOTION_DDOT":"0.0000000000000","SITE":"AFETR","GP_ID":"206180626","APOAPSIS":"548.419","OBJECT_NAME":"STARLINK-1466"},{"RCS_SIZE":"LARGE","BSTAR":"-0.00000814470000","TLE_LINE1":"1 45733U 20038D   22166.87957156 -.00000403  00000-0 -81447-5 0  9998","NORAD_CAT_ID":"45733","MEAN_ELEMENT_THEORY":"SGP4","MEAN_MOTION_DDOT":"0.0000000000000","OBJECT_TYPE":"PAYLOAD","CLASSIFICATION_TYPE":"U","OBJECT_NAME":"STARLINK-1467","APOAPSIS":"548.297","SITE":"AFETR","GP_ID":"206234949","OBJECT_ID":"2020-038D","CENTER_NAME":"EARTH","SEMIMAJOR_AXIS":"6925.357","REF_FRAME":"TEME","MEAN_ANOMALY":"306.7885","REV_AT_EPOCH":"11078","MEAN_MOTION_DOT":"-0.00000403","PERIAPSIS":"546.148","MEAN_MOTION":"15.06397101","EPHEMERIS_TYPE":"0","DECAY_DATE":null,"ARG_OF_PERICENTER":"53.3246","TLE_LINE2":"2 45733  53.0534 234.5095 0001551  53.3246 306.7885 15.06397101110784","PERIOD":"95.592","ECCENTRICITY":"0.00015510","TIME_SYSTEM":"UTC","RA_OF_ASC_NODE":"234.5095","EPOCH":"2022-06-15T21:06:34.982784","COUNTRY_CODE":"US","ELEMENT_SET_NO":"999","LAUNCH_DATE":"2020-06-13","FILE":"3496999","INCLINATION":"53.0534"},{"NORAD_CAT_ID":"45734","TLE_LINE1":"1 45734U 20038E   22166.92749296  .00000315  00000-0  40084-4 0  9990","BSTAR":"0.00004008400000","RCS_SIZE":"LARGE","OBJECT_TYPE":"PAYLOAD","CLASSIFICATION_TYPE":"U","MEAN_MOTION_DDOT":"0.0000000000000","MEAN_ELEMENT_THEORY":"SGP4","GP_ID":"206286450","SITE":"AFETR","APOAPSIS":"548.360","OBJECT_NAME":"STARLINK-1468","CENTER_NAME":"EARTH","OBJECT_ID":"2020-038E","DECAY_DATE":null,"EPHEMERIS_TYPE":"0","PERIAPSIS":"546.090","MEAN_MOTION":"15.06396302","MEAN_MOTION_DOT":"0.00000315","REV_AT_EPOCH":"11079","MEAN_ANOMALY":"303.4355","REF_FRAME":"TEME","SEMIMAJOR_AXIS":"6925.360","ELEMENT_SET_NO":"999","COUNTRY_CODE":"US","EPOCH":"2022-06-15T22:15:35.391744","RA_OF_ASC_NODE":"234.3050","TIME_SYSTEM":"UTC","TLE_LINE2":"2 45734  53.0539 234.3050 0001639  56.6791 303.4355 15.06396302110796","PERIOD":"95.592","ARG_OF_PERICENTER":"56.6791","ECCENTRICITY":"0.00016390","INCLINATION":"53.0539","FILE":"3497002","LAUNCH_DATE":"2020-06-13"},{"APOAPSIS":"548.079","GP_ID":"206285205","SITE":"AFETR","OBJECT_NAME":"STARLINK-1471","CLASSIFICATION_TYPE":"U","OBJECT_TYPE":"PAYLOAD","MEAN_MOTION_DDOT":"0.0000000000000","MEAN_ELEMENT_THEORY":"SGP4","NORAD_CAT_ID":"45735","TLE_LINE1":"1 45735U 20038F   22166.89800429 -.00000188  00000-0  62823-5 0  9998","RCS_SIZE":"LARGE","BSTAR":"0.00000628230000","LAUNCH_DATE":"2020-06-13","INCLINATION":"53.0548","FILE":"3497002","RA_OF_ASC_NODE":"234.4383","ELEMENT_SET_NO":"999","EPOCH":"2022-06-15T21:33:07.570656","COUNTRY_CODE":"US","TIME_SYSTEM":"UTC","TLE_LINE2":"2 45735  53.0548 234.4383 0001225  81.7760 278.3368 15.06394413110787","ECCENTRICITY":"0.00012250","PERIOD":"95.592","ARG_OF_PERICENTER":"81.7760","MEAN_ANOMALY":"278.3368","REV_AT_EPOCH":"11078","DECAY_DATE":null,"EPHEMERIS_TYPE":"0","PERIAPSIS":"546.382","MEAN_MOTION_DOT":"-0.00000188","MEAN_MOTION":"15.06394413","SEMIMAJOR_AXIS":"6925.366","REF_FRAME":"TEME","OBJECT_ID":"2020-038F","CENTER_NAME":"EARTH"},{"MEAN_ANOMALY":"51.1361","REV_AT_EPOCH":"11111","MEAN_MOTION":"15.37701456","PERIAPSIS":"451.910","MEAN_MOTION_DOT":"0.00009792","EPHEMERIS_TYPE":"0","DECAY_DATE":null,"SEMIMAJOR_AXIS":"6831.045","REF_FRAME":"TEME","OBJECT_ID":"2020-038G","CENTER_NAME":"EARTH","LAUNCH_DATE":"2020-06-13","FILE":"3496794","INCLINATION":"53.0602","RA_OF_ASC_NODE":"208.5654","EPOCH":"2022-06-15T09:41:00.496608","COUNTRY_CODE":"US","ELEMENT_SET_NO":"999","TLE_LINE2":"2 45736  53.0602 208.5654 0001464 308.9511  51.1361 15.37701456111116","ARG_OF_PERICENTER":"308.9511","PERIOD":"93.646","ECCENTRICITY":"0.00014640","TIME_SYSTEM":"UTC","TLE_LINE1":"1 45736U 20038G   22166.40347797  .00009792  00000-0  27068-3 0  9999","NORAD_CAT_ID":"45736","RCS_SIZE":"LARGE","BSTAR":"0.00027068000000","APOAPSIS":"453.910","SITE":"AFETR","GP_ID":"206205014","OBJECT_NAME":"STARLINK-1472","OBJECT_TYPE":"PAYLOAD","CLASSIFICATION_TYPE":"U","MEAN_ELEMENT_THEORY":"SGP4","MEAN_MOTION_DDOT":"0.0000000000000"},{"OBJECT_NAME":"STARLINK-1474","APOAPSIS":"548.295","GP_ID":"206286203","SITE":"AFETR","MEAN_MOTION_DDOT":"0.0000000000000","MEAN_ELEMENT_THEORY":"SGP4","CLASSIFICATION_TYPE":"U","OBJECT_TYPE":"PAYLOAD","RCS_SIZE":"LARGE","BSTAR":"-0.00002679000000","NORAD_CAT_ID":"45738","TLE_LINE1":"1 45738U 20038J   22166.88695833 -.00000680  00000-0 -26790-4 0  9991","LAUNCH_DATE":"2020-06-13","INCLINATION":"53.0567","FILE":"3497002","TIME_SYSTEM":"UTC","PERIOD":"95.593","TLE_LINE2":"2 45738  53.0567 234.4892 0001524  69.8225 290.2928 15.06391448110781","ARG_OF_PERICENTER":"69.8225","ECCENTRICITY":"0.00015240","RA_OF_ASC_NODE":"234.4892","ELEMENT_SET_NO":"999","COUNTRY_CODE":"US","EPOCH":"2022-06-15T21:17:13.199712","SEMIMAJOR_AXIS":"6925.375","REF_FRAME":"TEME","REV_AT_EPOCH":"11078","MEAN_ANOMALY":"290.2928","EPHEMERIS_TYPE":"0","DECAY_DATE":null,"PERIAPSIS":"546.184","MEAN_MOTION":"15.06391448","MEAN_MOTION_DOT":"-0.00000680","OBJECT_ID":"2020-038J","CENTER_NAME":"EARTH"},{"CENTER_NAME":"EARTH","OBJECT_ID":"2020-038K","REF_FRAME":"TEME","SEMIMAJOR_AXIS":"6924.153","EPHEMERIS_TYPE":"0","DECAY_DATE":null,"PERIAPSIS":"544.689","MEAN_MOTION":"15.06790131","MEAN_MOTION_DOT":"-0.00009047","REV_AT_EPOCH":"11136","MEAN_ANOMALY":"312.0605","TIME_SYSTEM":"UTC","TLE_LINE2":"2 45739  53.0556 193.8067 0001919  48.0548 312.0605 15.06790131111369","PERIOD":"95.567","ARG_OF_PERICENTER":"48.0548","ECCENTRICITY":"0.00019190","ELEMENT_SET_NO":"999","COUNTRY_CODE":"US","EPOCH":"2022-06-16T00:48:24.483744","RA_OF_ASC_NODE":"193.8067","INCLINATION":"53.0556","FILE":"3497002","LAUNCH_DATE":"2020-06-13","BSTAR":"-0.00058296000000","RCS_SIZE":"LARGE","NORAD_CAT_ID":"45739","TLE_LINE1":"1 45739U 20038K   22167.03361671 -.00009047  00000-0 -58296-3 0  9991","MEAN_MOTION_DDOT":"0.0000000000000","MEAN_ELEMENT_THEORY":"SGP4","CLASSIFICATION_TYPE":"U","OBJECT_TYPE":"PAYLOAD","OBJECT_NAME":"STARLINK-1475","GP_ID":"206286951","SITE":"AFETR","APOAPSIS":"547.347"},{"INCLINATION":"53.0550","FILE":"3497002","LAUNCH_DATE":"2020-06-13","TIME_SYSTEM":"UTC","TLE_LINE2":"2 45740  53.0550 234.4509 0001540  72.9359 287.1798 15.06389358110789","PERIOD":"95.593","ECCENTRICITY":"0.00015400","ARG_OF_PERICENTER":"72.9359","ELEMENT_SET_NO":"999","EPOCH":"2022-06-15T21:27:50.295168","COUNTRY_CODE":"US","RA_OF_ASC_NODE":"234.4509","REF_FRAME":"TEME","SEMIMAJOR_AXIS":"6925.381","DECAY_DATE":null,"EPHEMERIS_TYPE":"0","MEAN_MOTION":"15.06389358","PERIAPSIS":"546.180","MEAN_MOTION_DOT":"-0.00002074","REV_AT_EPOCH":"11078","MEAN_ANOMALY":"287.1798","CENTER_NAME":"EARTH","OBJECT_ID":"2020-038L","OBJECT_NAME":"STARLINK-1479","GP_ID":"206285706","SITE":"AFETR","APOAPSIS":"548.313","MEAN_MOTION_DDOT":"0.0000000000000","MEAN_ELEMENT_THEORY":"SGP4","OBJECT_TYPE":"PAYLOAD","CLASSIFICATION_TYPE":"U","BSTAR":"-0.00012044000000","RCS_SIZE":"LARGE","NORAD_CAT_ID":"45740","TLE_LINE1":"1 45740U 20038L   22166.89433212 -.00002074  00000-0 -12044-3 0  9991"}];
